GLOBALSTAR M057         
1 25943U 99058A   24325.11861029 -.00000066  00000+0  24741-3 0  9991
2 25943  51.9976 221.5301 0002219 334.4276  25.6463 12.24802917141311
GLOBALSTAR M059         
1 25944U 99058B   24325.78474088 -.00000037  00000+0  61082-3 0  9997
2 25944  52.0040  50.9625 0000628 146.0922   1.1802 11.99970112549026
GLOBALSTAR M056         
1 25945U 99058C   24325.78657677 -.00000135  00000+0 -55186-3 0  9993
2 25945  51.9982  58.2653 0001653 128.3229  21.3774 12.04777552137502
GLOBALSTAR M031         
1 25946U 99058D   24325.57076655 -.00000032  00000+0  59143-3 0  9994
2 25946  51.9979 323.6790 0001533 105.9590  49.4267 12.16022873139400
GLOBALSTAR M039         
1 25961U 99062A   24325.60308906 -.00000090  00000+0  74702-4 0  9990
2 25961  51.9825 184.0164 0001600 236.7665 123.3049 12.62311440153871
GLOBALSTAR M034         
1 25962U 99062B   24325.90552771 -.00000075  00000+0  97352-4 0  9994
2 25962  51.9850 192.7978 0014575  12.2812 104.9938 11.79436134113812
GLOBALSTAR M029         
1 25963U 99062C   24325.91803156 -.00000051  00000+0  43894-3 0  9997
2 25963  51.9810 298.8199 0002956  63.6449 321.0747 11.99887201144123
GLOBALSTAR M061         
1 25964U 99062D   24325.70012010 -.00000084  00000+0 -60366-4 0  9997
2 25964  51.9825  14.5990 0005731 291.9835 220.4775 11.76767865 96634
